STARLINK-2355
1 17895C 21021AM  21326.18977042  .00002459  00000-0  16475-3 0  3261
2 17895  53.0544 112.8869 0001206  84.8216 204.6336 15.06394435    14
